{"type": "FeatureCollection", "features": [ {"type": "Feature", "properties": {"norad_id": 34784, "name": "COSMOS 2251 DEB", "group": "cosmos-2251-debris", "lat": -11.679434833286797, "lon": -28.969772337440364, "alt_km": 727.1773677740284, "timestamp": "2025-12-07T11:27:50.402242+00:00", "meta": {"OBJECT_NAME": "COSMOS 2251 DEB", "OBJECT_ID": "1993-036AAM", "EPOCH": "2025-12-06T05:56:01.298400", "MEAN_MOTION": 14.60734634, "ECCENTRICITY": 0.00496438, "INCLINATION": 74.007, "RA_OF_ASC_NODE": 336.783, "ARG_OF_PERICENTER": 148.0473, "MEAN_ANOMALY": 212.3721, "EPHEMERIS_TYPE": 0, "CLASSIFICATION_TYPE": "U", "NORAD_CAT_ID": 34784, "ELEMENT_SET_NO": 999, "REV_AT_EPOCH": 88440, "BSTAR": 0.00087620671, "MEAN_MOTION_DOT": 4.32e-05, "MEAN_MOTION_DDOT": 0}, "tle": {"line1": "1 34784U 93036AAM 25340.24723725  .00004320  00000+0  87621-3 0  9998", "line2": "2 34784  74.0070 336.7830 0049643 148.0473 212.3721 14.60734634884409"}}, "geometry": {"type": "Point", "coordinates": [-28.969772337440364, -11.679434833286797]}}, {"type": "Feature", "properties": {"norad_id": 34790, "name": "COSMOS 2251 DEB", "group": "cosmos-2251-debris", "lat": 70.9169837038639, "lon": -51.089475940694236, "alt_km": 842.0981924023827, "timestamp": "2025-12-07T11:27:50.402270+00:00", "meta": {"OBJECT_NAME": "COSMOS 2251 DEB", "OBJECT_ID": "1993-036AAT", "EPOCH": "2025-12-06T20:15:35.664192", "MEAN_MOTION": 14.24599885, "ECCENTRICITY": 0.01007033, "INCLINATION": 74.0549, "RA_OF_ASC_NODE": 254.3201, "ARG_OF_PERICENTER": 317.1761, "MEAN_ANOMALY": 113.5959, "EPHEMERIS_TYPE": 0, "CLASSIFICATION_TYPE": "U", "NORAD_CAT_ID": 34790, "ELEMENT_SET_NO": 999, "REV_AT_EPOCH": 86489, "BSTAR": 0.0013825473, "MEAN_MOTION_DOT": 3.36e-05, "MEAN_MOTION_DDOT": 0}, "tle": {"line1": "1 34790U 93036AAT 25340.84416278  .00003360  00000+0  13825-2 0  9990", "line2": "2 34790  74.0549 254.3201 0100703 317.1761 113.5959 14.24599885864891"}}, "geometry": {"type": "Point", "coordinates": [-51.089475940694236, 70.9169837038639]}}, {"type": "Feature", "properties": {"norad_id": 34792, "name": "COSMOS 2251 DEB", "group": "cosmos-2251-debris", "lat": 24.715585799748357, "lon": -7.884928046895368, "alt_km": 709.7592564846036, "timestamp": "2025-12-07T11:27:50.402281+00:00", "meta": {"OBJECT_NAME": "COSMOS 2251 DEB", "OBJECT_ID": "1993-036AAV", "EPOCH": "2025-12-06T20:00:02.545920", "MEAN_MOTION": 14.55883489, "ECCENTRICITY": 0.00125445, "INCLINATION": 74.017, "RA_OF_ASC_NODE": 180.918, "ARG_OF_PERICENTER": 274.6891, "MEAN_ANOMALY": 104.0123, "EPHEMERIS_TYPE": 0, "CLASSIFICATION_TYPE": "U", "NORAD_CAT_ID": 34792, "ELEMENT_SET_NO": 999, "REV_AT_EPOCH": 87564, "BSTAR": 0.001553243, "MEAN_MOTION_DOT": 6.803e-05, "MEAN_MOTION_DDOT": 0}, "tle": {"line1": "1 34792U 93036AAV 25340.83336280  .00006803  00000+0  15532-2 0  9997", "line2": "2 34792  74.0170 180.9180 0012544 274.6891 104.0123 14.55883489875642"}}, "geometry": {"type": "Point", "coordinates": [-7.884928046895368, 24.715585799748357]}}, {"type": "Feature", "properties": {"norad_id": 34793, "name": "COSMOS 2251 DEB", "group": "cosmos-2251-debris", "lat": -71.03877075806291, "lon": 136.70251007315755, "alt_km": 802.5737468465768, "timestamp": "2025-12-07T11:27:50.402292+00:00", "meta": {"OBJECT_NAME": "COSMOS 2251 DEB", "OBJECT_ID": "1993-036AAW", "EPOCH": "2025-12-06T21:13:48.430848", "MEAN_MOTION": 14.38629494, "ECCENTRICITY": 0.00500559, "INCLINATION": 74.0029, "RA_OF_ASC_NODE": 261.1835, "ARG_OF_PERICENTER": 56.845, "MEAN_ANOMALY": 12.7084, "EPHEMERIS_TYPE": 0, "CLASSIFICATION_TYPE": "U", "NORAD_CAT_ID": 34793, "ELEMENT_SET_NO": 999, "REV_AT_EPOCH": 87246, "BSTAR": 0.00050578117, "MEAN_MOTION_DOT": 1.546e-05, "MEAN_MOTION_DDOT": 0}, "tle": {"line1": "1 34793U 93036AAW 25340.88458832  .00001546  00000+0  50578-3 0  9990", "line2": "2 34793  74.0029 261.1835 0050055  56.8450  12.7084 14.38629494872468"}}, "geometry": {"type": "Point", "coordinates": [136.70251007315755, -71.03877075806291]}}, {"type": "Feature", "properties": {"norad_id": 34796, "name": "COSMOS 2251 DEB", "group": "cosmos-2251-debris", "lat": 15.387703834730303, "lon": 41.69109621522282, "alt_km": 799.2922604950363, "timestamp": "2025-12-07T11:27:50.402303+00:00", "meta": {"OBJECT_NAME": "COSMOS 2251 DEB", "OBJECT_ID": "1993-036AAZ", "EPOCH": "2025-12-04T16:32:19.644000", "MEAN_MOTION": 14.48622795, "ECCENTRICITY": 0.0100109, "INCLINATION": 74.0308, "RA_OF_ASC_NODE": 231.4366, "ARG_OF_PERICENTER": 335.2768, "MEAN_ANOMALY": 52.2124, "EPHEMERIS_TYPE": 0, "CLASSIFICATION_TYPE": "U", "NORAD_CAT_ID": 34796, "ELEMENT_SET_NO": 999, "REV_AT_EPOCH": 87911, "BSTAR": 0.0015827, "MEAN_MOTION_DOT": 6.321e-05, "MEAN_MOTION_DDOT": 0}, "tle": {"line1": "1 34796U 93036AAZ 25338.68911625  .00006321  00000+0  15827-2 0  9995", "line2": "2 34796  74.0308 231.4366 0100109 335.2768  52.2124 14.48622795879113"}}, "geometry": {"type": "Point", "coordinates": [41.69109621522282, 15.387703834730303]}}, {"type": "Feature", "properties": {"norad_id": 34797, "name": "COSMOS 2251 DEB", "group": "cosmos-2251-debris", "lat": 37.45523689414928, "lon": 122.50384509731212, "alt_km": 798.0245560573967, "timestamp": "2025-12-07T11:27:50.402313+00:00", "meta": {"OBJECT_NAME": "COSMOS 2251 DEB", "OBJECT_ID": "1993-036ABA", "EPOCH": "2025-12-06T15:18:32.741280", "MEAN_MOTION": 14.42649949, "ECCENTRICITY": 0.00724054, "INCLINATION": 73.9773, "RA_OF_ASC_NODE": 111.3499, "ARG_OF_PERICENTER": 225.9765, "MEAN_ANOMALY": 133.5412, "EPHEMERIS_TYPE": 0, "CLASSIFICATION_TYPE": "U", "NORAD_CAT_ID": 34797, "ELEMENT_SET_NO": 999, "REV_AT_EPOCH": 87327, "BSTAR": 0.0039721456, "MEAN_MOTION_DOT": 0.00013628, "MEAN_MOTION_DDOT": 0}, "tle": {"line1": "1 34797U 93036ABA 25340.63787895  .00013628  00000+0  39721-2 0  9991", "line2": "2 34797  73.9773 111.3499 0072405 225.9765 133.5412 14.42649949873278"}}, "geometry": {"type": "Point", "coordinates": [122.50384509731212, 37.45523689414928]}}, {"type": "Feature", "properties": {"norad_id": 34814, "name": "COSMOS 2251 DEB", "group": "cosmos-2251-debris", "lat": 44.51422320514118, "lon": 138.6949642550517, "alt_km": 766.3060129020514, "timestamp": "2025-12-07T11:27:50.402323+00:00", "meta": {"OBJECT_NAME": "COSMOS 2251 DEB", "OBJECT_ID": "1993-036ABD", "EPOCH": "2025-12-06T06:32:24.978912", "MEAN_MOTION": 14.36849213, "ECCENTRICITY": 0.00566347, "INCLINATION": 73.8955, "RA_OF_ASC_NODE": 337.4307, "ARG_OF_PERICENTER": 228.0837, "MEAN_ANOMALY": 154.2293, "EPHEMERIS_TYPE": 0, "CLASSIFICATION_TYPE": "U", "NORAD_CAT_ID": 34814, "ELEMENT_SET_NO": 999, "REV_AT_EPOCH": 87240, "BSTAR": 0.0014993778, "MEAN_MOTION_DOT": 4.489e-05, "MEAN_MOTION_DDOT": 0}, "tle": {"line1": "1 34814U 93036ABD 25340.27251133  .00004489  00000+0  14994-2 0  9992", "line2": "2 34814  73.8955 337.4307 0056634 228.0837 154.2293 14.36849213872408"}}, "geometry": {"type": "Point", "coordinates": [138.6949642550517, 44.51422320514118]}}, {"type": "Feature", "properties": {"norad_id": 34815, "name": "COSMOS 2251 DEB", "group": "cosmos-2251-debris", "lat": -43.273025510753634, "lon": 87.75565083022444, "alt_km": 646.072738125481, "timestamp": "2025-12-07T11:27:50.402334+00:00", "meta": {"OBJECT_NAME": "COSMOS 2251 DEB", "OBJECT_ID": "1993-036ABE", "EPOCH": "2025-12-06T21:26:54.706272", "MEAN_MOTION": 14.78188857, "ECCENTRICITY": 0.00589396, "INCLINATION": 74.0461, "RA_OF_ASC_NODE": 253.2776, "ARG_OF_PERICENTER": 323.6265, "MEAN_ANOMALY": 36.091, "EPHEMERIS_TYPE": 0, "CLASSIFICATION_TYPE": "U", "NORAD_CAT_ID": 34815, "ELEMENT_SET_NO": 999, "REV_AT_EPOCH": 88541, "BSTAR": 0.0016451921, "MEAN_MOTION_DOT": 0.00012263, "MEAN_MOTION_DDOT": 0}, "tle": {"line1": "1 34815U 93036ABE 25340.89368873  .00012263  00000+0  16452-2 0  9991", "line2": "2 34815  74.0461 253.2776 0058939 323.6265  36.0910 14.78188857885410"}}, "geometry": {"type": "Point", "coordinates": [87.75565083022444, -43.273025510753634]}}, {"type": "Feature", "properties": {"norad_id": 34816, "name": "COSMOS 2251 DEB", "group": "cosmos-2251-debris", "lat": -63.24465942585495, "lon": 116.72203022233019, "alt_km": 965.5603782630715, "timestamp": "2025-12-07T11:27:50.402348+00:00", "meta": {"OBJECT_NAME": "COSMOS 2251 DEB", "OBJECT_ID": "1993-036ABF", "EPOCH": "2025-12-06T06:38:33.487872", "MEAN_MOTION": 13.58296174, "ECCENTRICITY": 0.03736457, "INCLINATION": 73.886, "RA_OF_ASC_NODE": 153.667, "ARG_OF_PERICENTER": 219.2558, "MEAN_ANOMALY": 318.307, "EPHEMERIS_TYPE": 0, "CLASSIFICATION_TYPE": "U", "NORAD_CAT_ID": 34816, "ELEMENT_SET_NO": 999, "REV_AT_EPOCH": 82695, "BSTAR": 0.001873391, "MEAN_MOTION_DOT": 2.123e-05, "MEAN_MOTION_DDOT": 0}, "tle": {"line1": "1 34816U 93036ABF 25340.27677648  .00002123  00000+0  18734-2 0  9996", "line2": "2 34816  73.8860 153.6670 0373645 219.2558 318.3070 13.58296174826952"}}, "geometry": {"type": "Point", "coordinates": [116.72203022233019, -63.24465942585495]}}, {"type": "Feature", "properties": {"norad_id": 34818, "name": "COSMOS 2251 DEB", "group": "cosmos-2251-debris", "lat": -22.920626524435463, "lon": 133.5672969431643, "alt_km": 790.7144326549096, "timestamp": "2025-12-07T11:27:50.402358+00:00", "meta": {"OBJECT_NAME": "COSMOS 2251 DEB", "OBJECT_ID": "1993-036ABH", "EPOCH": "2025-12-06T23:05:29.246784", "MEAN_MOTION": 14.36954587, "ECCENTRICITY": 0.00238961, "INCLINATION": 74.0354, "RA_OF_ASC_NODE": 307.5625, "ARG_OF_PERICENTER": 24.6801, "MEAN_ANOMALY": 33.3633, "EPHEMERIS_TYPE": 0, "CLASSIFICATION_TYPE": "U", "NORAD_CAT_ID": 34818, "ELEMENT_SET_NO": 999, "REV_AT_EPOCH": 87287, "BSTAR": 0.00040038731, "MEAN_MOTION_DOT": 1.164e-05, "MEAN_MOTION_DDOT": 0}, "tle": {"line1": "1 34818U 93036ABH 25340.96214406  .00001164  00000+0  40039-3 0  9991", "line2": "2 34818  74.0354 307.5625 0023896  24.6801  33.3633 14.36954587872871"}}, "geometry": {"type": "Point", "coordinates": [133.5672969431643, -22.920626524435463]}}]}